NORAD_CAT_ID,OBJECT_NAME,OBJECT_TYPE,EPOCH,MEAN_MOTION,ECCENTRICITY,INCLINATION,RA_OF_ASC_NODE,ARG_OF_PERICENTER,MEAN_ANOMALY,BSTAR,MEAN_MOTION_DOT,MEAN_MOTION_DDOT,TLE_LINE0,TLE_LINE1,TLE_LINE2,SEMIMAJOR_AXIS,PERIOD,APOGEE,PERIGEE,DECAYED
55392.0,STARLINK-5085,PAYLOAD,2023-07-25 10:52:06,15.69938623,0.0003052,69.9975,318.3086,268.3167,91.7679,2.0961e-05,2.31e-05,0.0,0 STARLINK-5085,1 55392U 23014B   23206.45284816  .00002310  00000-0  20961-4 0  9993,2 55392  69.9975 318.3086 0003052 268.3167  91.7679 15.69938623 28576,6737.21,91.723,361.131,357.018,0.0
55392.0,STARLINK-5085,PAYLOAD,2023-07-26 06:44:53,15.69916802,0.0004164,69.9982,315.9821,274.6553,85.4168,6.7379e-06,5.97e-06,0.0,0 STARLINK-5085,1 55392U 23014B   23207.28117840  .00000597  00000-0  67379-5 0  9997,2 55392  69.9982 315.9821 0004164 274.6553  85.4168 15.69916802 28701,6737.272,91.725,361.942,356.332,0.0
55392.0,STARLINK-5085,PAYLOAD,2023-07-26 17:27:09,15.69925309,0.0003504,69.9975,314.7309,283.6598,76.4207,1.4253e-05,1.501e-05,0.0,0 STARLINK-5085,1 55392U 23014B   23207.72719046  .00001501  00000-0  14253-4 0  9990,2 55392  69.9975 314.7309 0003504 283.6598  76.4207 15.69925309 27836,6737.248,91.724,361.473,356.752,0.0
55392.0,STARLINK-5085,PAYLOAD,2023-07-27 11:48:11,15.69915648,0.0003358,70.0006,312.5775,275.6602,84.4211,-1.863e-05,-2.451e-05,0.0,0 STARLINK-5085,1 55392U 23014B   23208.49179617 -.00002451  00000-0 -18630-4 0  9999,2 55392  70.0006 312.5775 0003358 275.6602  84.4211 15.69915648 28897,6737.275,91.725,361.403,356.878,0.0
55392.0,STARLINK-5085,PAYLOAD,2023-07-28 10:44:28,15.69918904,0.0003779,69.9997,309.8914,271.031,89.0453,1.8858e-05,2.055e-05,0.0,0 STARLINK-5085,1 55392U 23014B   23209.44754656  .00002055  00000-0  18858-4 0  9997,2 55392  69.9997 309.8914 0003779 271.0310  89.0453 15.69918904 29045,6737.266,91.724,361.677,356.585,0.0
55392.0,STARLINK-5085,PAYLOAD,2023-07-29 12:44:14,15.69925506,0.0003907,70.0,306.8456,270.1734,89.9014,9.7751e-06,9.63e-06,0.0,0 STARLINK-5085,1 55392U 23014B   23210.53072808  .00000963  00000-0  97751-5 0  9997,2 55392  70.0000 306.8456 0003907 270.1734  89.9014 15.69925506 28276,6737.247,91.724,361.744,356.48,0.0
55392.0,STARLINK-5085,PAYLOAD,2023-07-30 10:08:47,15.6992114,0.0003712,69.9978,304.3382,269.1677,90.9094,6.8948e-06,6.16e-06,0.0,0 STARLINK-5085,1 55392U 23014B   23211.42276683  .00000616  00000-0  68948-5 0  9994,2 55392  69.9978 304.3382 0003712 269.1677  90.9094 15.69921140 28412,6737.26,91.724,361.625,356.624,0.0
55392.0,STARLINK-5085,PAYLOAD,2023-07-31 15:12:03,15.69932045,0.0003306,69.9974,300.933,263.1308,96.9512,1.6952e-05,1.827e-05,0.0,0 STARLINK-5085,1 55392U 23014B   23212.63337555  .00001827  00000-0  16952-4 0  9996,2 55392  69.9974 300.9330 0003306 263.1308  96.9512 15.69932045 28605,6737.228,91.724,361.321,356.866,0.0
55392.0,STARLINK-5085,PAYLOAD,2023-08-01 09:33:06,15.69917755,0.0002733,70.0006,298.7838,263.7779,96.3106,9.0642e-06,8.77e-06,0.0,0 STARLINK-5085,1 55392U 23014B   23213.39798768  .00000877  00000-0  90642-5 0  9990,2 55392  70.0006 298.7838 0002733 263.7779  96.3106 15.69917755 28729,6737.269,91.725,360.976,357.293,0.0
55392.0,STARLINK-5085,PAYLOAD,2023-08-02 11:32:52,15.69928848,0.0002997,69.9969,295.7367,257.7323,102.3537,9.4444e-06,9.23e-06,0.0,0 STARLINK-5085,1 55392U 23014B   23214.48116581  .00000923  00000-0  94444-5 0  9994,2 55392  69.9969 295.7367 0002997 257.7323 102.3537 15.69928848 28897,6737.238,91.724,361.122,357.083,0.0
55392.0,STARLINK-5085,PAYLOAD,2023-08-03 08:57:25,15.69914904,0.0003205,69.9974,293.2299,262.7406,97.3425,5.2413e-06,4.17e-06,0.0,0 STARLINK-5085,1 55392U 23014B   23215.37320878  .00000417  00000-0  52413-5 0  9997,2 55392  69.9974 293.2299 0003205 262.7406  97.3425 15.69914904 29035,6737.277,91.725,361.302,356.983,0.0
55392.0,STARLINK-5085,PAYLOAD,2023-08-03 18:07:55,15.69927775,0.0003642,69.997,292.1542,266.4564,93.6215,1.2961e-05,1.346e-05,0.0,0 STARLINK-5085,1 55392U 23014B   23215.75550030  .00001346  00000-0  12961-4 0  9999,2 55392  69.9970 292.1542 0003642 266.4564  93.6215 15.69927775 29093,6737.241,91.724,361.559,356.652,0.0
55392.0,STARLINK-5085,PAYLOAD,2023-08-04 14:00:42,15.69925101,0.0003879,69.9967,289.8273,267.3916,92.6836,4.2625e-06,2.99e-06,0.0,0 STARLINK-5085,1 55392U 23014B   23216.58381949  .00000299  00000-0  42625-5 0  9999,2 55392  69.9967 289.8273 0003879 267.3916  92.6836 15.69925101 29220,6737.248,91.724,361.727,356.5,0.0
55392.0,STARLINK-5085,PAYLOAD,2023-08-04 23:11:12,15.6993354,0.0003442,69.998,288.7518,266.6958,93.3844,1.291e-05,1.34e-05,0.0,0 STARLINK-5085,1 55392U 23014B   23216.96611251  .00001340  00000-0  12910-4 0  9994,2 55392  69.9980 288.7518 0003442 266.6958  93.3844 15.69933540 29288,6737.224,91.724,361.408,356.77,0.0
55392.0,STARLINK-5085,PAYLOAD,2023-08-05 08:21:44,15.69911345,0.0003379,69.9996,287.6786,271.4383,88.6426,1.7654e-05,1.909e-05,0.0,0 STARLINK-5085,1 55392U 23014B   23217.34842706  .00001909  00000-0  17654-4 0  9999,2 55392  69.9996 287.6786 0003379 271.4383  88.6426 15.69911345 29344,6737.288,91.725,361.429,356.876,0.0
55392.0,STARLINK-5085,PAYLOAD,2023-08-05 14:28:43,15.6992466,0.0002885,69.9984,286.9605,253.2007,106.8872,2.8335e-05,3.196e-05,0.0,0 STARLINK-5085,1 55392U 23014B   23217.60328305  .00003196  00000-0  28335-4 0  9990,2 55392  69.9984 286.9605 0002885 253.2007 106.8872 15.69924660 29381,6737.25,91.724,361.058,357.171,0.0
55392.0,STARLINK-5085,PAYLOAD,2023-08-05 23:39:15,15.6991996,0.0003274,69.998,285.8844,268.9202,91.1619,5.2552e-07,-1.5e-06,0.0,0 STARLINK-5085,1 55392U 23014B   23217.98559162 -.00000150  00000-0  52552-6 0  9996,2 55392  69.9980 285.8844 0003274 268.9202  91.1619 15.69919960 29442,6737.263,91.724,361.334,356.922,0.0
55392.0,STARLINK-5085,PAYLOAD,2023-08-06 07:18:03,15.69880973,0.0003055,69.9999,284.9928,261.6963,98.3886,-2.5344e-05,-3.253e-05,0.0,0 STARLINK-5085,1 55392U 23014B   23218.30420752 -.00003253  00000-0 -25344-4 0  9990,2 55392  69.9999 284.9928 0003055 261.6963  98.3886 15.69880973 29497,6737.375,91.727,361.298,357.181,0.0
55392.0,STARLINK-5085,PAYLOAD,2023-08-06 14:56:48,15.69890522,0.0003153,69.998,284.0965,257.5454,102.5389,-2.0268e-05,-2.645e-05,0.0,0 STARLINK-5085,1 55392U 23014B   23218.62278844 -.00002645  00000-0 -20268-4 0  9992,2 55392  69.9980 284.0965 0003153 257.5454 102.5389 15.69890522 29540,6737.347,91.726,361.337,357.088,0.0
55392.0,STARLINK-5085,PAYLOAD,2023-08-06 22:35:32,15.69920882,0.0003814,69.9985,283.1983,266.5518,93.5242,5.7037e-07,-1.44e-06,0.0,0 STARLINK-5085,1 55392U 23014B   23218.94135033 -.00000144  00000-0  57037-6 0  9996,2 55392  69.9985 283.1983 0003814 266.5518  93.5242 15.69920882 29595,6737.26,91.724,361.695,356.556,0.0
55392.0,STARLINK-5085,PAYLOAD,2023-08-07 07:46:01,15.6993955,0.0003221,69.9995,282.1251,237.2219,122.8667,3.4689e-05,3.963e-05,0.0,0 STARLINK-5085,1 55392U 23014B   23219.32362973  .00003963  00000-0  34689-4 0  9991,2 55392  69.9995 282.1251 0003221 237.2219 122.8667 15.69939550 29654,6737.207,91.723,361.242,356.902,0.0
55392.0,STARLINK-5085,PAYLOAD,2023-08-07 16:56:32,15.69937608,0.0002705,69.9987,281.0487,263.8296,96.2591,2.098e-05,2.312e-05,0.0,0 STARLINK-5085,1 55392U 23014B   23219.70593159  .00002312  00000-0  20980-4 0  9991,2 55392  69.9987 281.0487 0002705 263.8296  96.2591 15.69937608 29719,6737.213,91.723,360.9,357.255,0.0
55392.0,STARLINK-5085,PAYLOAD,2023-08-07 21:31:48,15.69929681,0.0002978,69.9996,280.5122,267.1298,92.9557,2.2109e-05,2.447e-05,0.0,0 STARLINK-5085,1 55392U 23014B   23219.89708509  .00002447  00000-0  22109-4 0  9992,2 55392  69.9996 280.5122 0002978 267.1298  92.9557 15.69929681 29740,6737.235,91.724,361.107,357.094,0.0
55392.0,STARLINK-5085,PAYLOAD,2023-08-08 05:10:35,15.69901526,0.0003555,69.9992,279.6171,263.6159,96.4632,7.0442e-06,6.34e-06,0.0,0 STARLINK-5085,1 55392U 23014B   23220.21568873  .00000634  00000-0  70442-5 0  9998,2 55392  69.9992 279.6171 0003555 263.6159  96.4632 15.69901526 29794,6737.316,91.725,361.576,356.786,0.0
55392.0,STARLINK-5085,PAYLOAD,2023-08-08 14:21:06,15.69904216,0.0002917,69.9989,278.5414,252.793,107.2946,2.7493e-05,3.092e-05,0.0,0 STARLINK-5085,1 55392U 23014B   23220.59798837  .00003092  00000-0  27493-4 0  9992,2 55392  69.9989 278.5414 0002917 252.7930 107.2946 15.69904216 29850,6737.308,91.725,361.138,357.208,0.0
55392.0,STARLINK-5085,PAYLOAD,2023-08-09 02:35:06,15.69923612,0.0003355,69.9975,277.1065,256.1619,103.9204,1.2409e-06,-6.4e-07,0.0,0 STARLINK-5085,1 55392U 23014B   23221.10771527 -.00000064  00000-0  12409-5 0  9996,2 55392  69.9975 277.1065 0003355 256.1619 103.9204 15.69923612 29931,6737.253,91.724,361.378,356.857,0.0
55392.0,STARLINK-5085,PAYLOAD,2023-08-09 10:13:50,15.69943029,0.0003062,69.9979,276.2113,245.754,114.3336,-1.5908e-06,-4.04e-06,0.0,0 STARLINK-5085,1 55392U 23014B   23221.42628450 -.00000404  00000-0 -15908-5 0  9993,2 55392  69.9979 276.2113 0003062 245.7540 114.3336 15.69943029 29982,6737.197,91.723,361.125,356.999,0.0
55392.0,STARLINK-5085,PAYLOAD,2023-08-10 03:03:08,15.6992036,0.0003193,69.9965,274.2404,265.9205,94.1626,3.9542e-07,-1.65e-06,0.0,0 STARLINK-5085,1 55392U 23014B   23222.12717969 -.00000165  00000-0  39542-6 0  9999,2 55392  69.9965 274.2404 0003193 265.9205  94.1626 15.69920360 30099,6737.262,91.724,361.278,356.976,0.0
55392.0,STARLINK-5085,PAYLOAD,2023-08-11 09:38:10,15.69939268,0.0003135,69.997,270.6587,260.2987,99.7855,-1.1144e-05,-1.553e-05,0.0,0 STARLINK-5085,1 55392U 23014B   23223.40150624 -.00001553  00000-0 -11144-4 0  9999,2 55392  69.9970 270.6587 0003135 260.2987  99.7855 15.69939268 30292,6737.208,91.723,361.185,356.961,0.0
55392.0,STARLINK-5085,PAYLOAD,2023-08-11 15:45:11,15.69917722,0.000322,69.9974,269.942,267.8216,92.2611,-1.0049e-05,-1.42e-05,0.0,0 STARLINK-5085,1 55392U 23014B   23223.65638604 -.00001420  00000-0 -10049-4 0  9991,2 55392  69.9974 269.9420 0003220 267.8216  92.2611 15.69917722 30330,6737.269,91.725,361.304,356.965,0.0
